NORAD_CAT_ID,OBJECT_NAME,OBJECT_TYPE,EPOCH,MEAN_MOTION,ECCENTRICITY,INCLINATION,RA_OF_ASC_NODE,ARG_OF_PERICENTER,MEAN_ANOMALY,BSTAR,MEAN_MOTION_DOT,MEAN_MOTION_DDOT,TLE_LINE0,TLE_LINE1,TLE_LINE2,SEMIMAJOR_AXIS,PERIOD,APOGEE,PERIGEE,DECAYED
55648.0,STARLINK-5501,PAYLOAD,2024-05-25 20:45:23,14.98333568,0.0002805,70.0011,30.499,254.6571,105.4278,1.3685e-05,7e-07,0.0,0 STARLINK-5501,1 55648U 23021W   24146.86485732  .00000070  00000-0  13685-4 0  9990,2 55648  70.0011  30.4990 0002805 254.6571 105.4278 14.98333568 70700,6950.182,96.107,573.996,570.097,0.0
55648.0,STARLINK-5501,PAYLOAD,2024-05-26 03:09:56,14.98330928,0.0002703,70.001,29.8243,263.499,96.5861,8.714e-06,1.1e-07,0.0,0 STARLINK-5501,1 55648U 23021W   24147.13189930  .00000011  00000-0  87140-5 0  9995,2 55648  70.0010  29.8243 0002703 263.4990  96.5861 14.98330928 71045,6950.19,96.107,573.934,570.176,0.0
55648.0,STARLINK-5501,PAYLOAD,2024-05-26 20:47:23,14.98340494,0.0003137,70.0013,27.9741,263.8556,96.2245,0.00028295,3.286e-05,0.0,0 STARLINK-5501,1 55648U 23021W   24147.86624712  .00003286  00000-0  28295-3 0  9998,2 55648  70.0013  27.9741 0003137 263.8556  96.2245 14.98340494 70854,6950.16,96.106,574.206,569.845,0.0
55648.0,STARLINK-5501,PAYLOAD,2024-05-26 22:23:32,14.98330814,0.0002949,70.001,27.8056,267.2735,92.8087,0.00017975,2.052e-05,0.0,0 STARLINK-5501,1 55648U 23021W   24147.93301516  .00002052  00000-0  17975-3 0  9993,2 55648  70.0010  27.8056 0002949 267.2735  92.8087 14.98330814 71162,6950.19,96.107,574.105,570.006,0.0
55648.0,STARLINK-5501,PAYLOAD,2024-05-27 01:35:48,14.98332681,0.000308,70.0013,27.4691,270.1711,89.9096,0.00017923,2.046e-05,0.0,0 STARLINK-5501,1 55648U 23021W   24148.06653385  .00002046  00000-0  17923-3 0  9998,2 55648  70.0013  27.4691 0003080 270.1711  89.9096 14.98332681 70889,6950.185,96.107,574.19,569.909,0.0
55648.0,STARLINK-5501,PAYLOAD,2024-05-27 09:36:29,14.98325468,0.0002993,70.0016,26.6274,273.7103,86.3714,0.00015753,1.787e-05,0.0,0 STARLINK-5501,1 55648U 23021W   24148.40033813  .00001787  00000-0  15753-3 0  9994,2 55648  70.0016  26.6274 0002993 273.7103  86.3714 14.98325468 70935,6950.207,96.107,574.152,569.992,0.0
55648.0,STARLINK-5501,PAYLOAD,2024-05-27 22:25:33,14.98330257,0.0002764,70.0009,25.2809,260.0751,100.0097,8.2558e-05,8.92e-06,0.0,0 STARLINK-5501,1 55648U 23021W   24148.93441569  .00000892  00000-0  82558-4 0  9997,2 55648  70.0009  25.2809 0002764 260.0751 100.0097 14.98330257 71313,6950.192,96.107,573.978,570.136,0.0
55648.0,STARLINK-5501,PAYLOAD,2024-05-28 01:37:49,14.98334881,0.0002714,70.001,24.9448,257.235,102.8506,1.8076e-05,1.23e-06,0.0,0 STARLINK-5501,1 55648U 23021W   24149.06793364  .00000123  00000-0  18076-4 0  9996,2 55648  70.0010  24.9448 0002714 257.2350 102.8506 14.98334881 71039,6950.178,96.107,573.929,570.157,0.0
55648.0,STARLINK-5501,PAYLOAD,2024-05-28 09:38:29,14.98333209,0.0002729,70.0011,24.1026,269.1097,90.975,6.2956e-05,6.58e-06,0.0,0 STARLINK-5501,1 55648U 23021W   24149.40173419  .00000658  00000-0  62956-4 0  9996,2 55648  70.0011  24.1026 0002729 269.1097  90.9750 14.98333209 71389,6950.183,96.107,573.945,570.151,0.0
55648.0,STARLINK-5501,PAYLOAD,2024-05-28 22:27:34,14.98334165,0.0002845,70.001,22.7561,268.9067,91.1766,9.6532e-06,2.2e-07,0.0,0 STARLINK-5501,1 55648U 23021W   24149.93581254  .00000022  00000-0  96532-5 0  9997,2 55648  70.0010  22.7561 0002845 268.9067  91.1766 14.98334165 71460,6950.18,96.107,574.022,570.068,0.0
55648.0,STARLINK-5501,PAYLOAD,2024-05-29 01:39:50,14.98335092,0.0002836,70.001,22.4193,268.6829,91.4005,1.8233e-05,1.25e-06,0.0,0 STARLINK-5501,1 55648U 23021W   24150.06933123  .00000125  00000-0  18233-4 0  9994,2 55648  70.0010  22.4193 0002836 268.6829  91.4005 14.98335092 71189,6950.177,96.107,574.013,570.071,0.0
55648.0,STARLINK-5501,PAYLOAD,2024-05-29 14:28:54,14.98332049,0.00028,70.001,21.0726,270.1925,89.8913,5.4644e-05,5.59e-06,0.0,0 STARLINK-5501,1 55648U 23021W   24150.60341122  .00000559  00000-0  54644-4 0  9993,2 55648  70.0010  21.0726 0002800 270.1925  89.8913 14.98332049 71562,6950.187,96.107,573.998,570.106,0.0
55648.0,STARLINK-5501,PAYLOAD,2024-05-29 22:29:35,14.98332478,0.0002818,70.0009,20.2305,268.2659,91.8178,5.5496e-05,5.69e-06,0.0,0 STARLINK-5501,1 55648U 23021W   24150.93721079  .00000569  00000-0  55496-4 0  9999,2 55648  70.0009  20.2305 0002818 268.2659  91.8178 14.98332478 71613,6950.185,96.107,574.009,570.092,0.0
55648.0,STARLINK-5501,PAYLOAD,2024-05-30 01:41:51,14.98333825,0.0002804,70.0009,19.894,268.2095,91.8743,6.8601e-05,7.26e-06,0.0,0 STARLINK-5501,1 55648U 23021W   24151.07072936  .00000726  00000-0  68601-4 0  9993,2 55648  70.0009  19.8940 0002804 268.2095  91.8743 14.98333825 71335,6950.181,96.107,573.995,570.097,0.0
55648.0,STARLINK-5501,PAYLOAD,2024-05-30 14:30:55,14.9833426,0.0002756,70.0011,18.5476,263.1596,96.9249,6.8193e-05,7.21e-06,0.0,0 STARLINK-5501,1 55648U 23021W   24151.60480816  .00000721  00000-0  68193-4 0  9993,2 55648  70.0011  18.5476 0002756 263.1596  96.9249 14.98334260 71717,6950.18,96.107,573.96,570.129,0.0
55648.0,STARLINK-5501,PAYLOAD,2024-05-30 17:43:11,14.98333819,0.0002773,70.001,18.2108,262.945,97.1394,5.9774e-05,6.2e-06,0.0,0 STARLINK-5501,1 55648U 23021W   24151.73832833  .00000620  00000-0  59774-4 0  9990,2 55648  70.0010  18.2108 0002773 262.9450  97.1394 14.98333819 71735,6950.181,96.107,573.973,570.119,0.0
55648.0,STARLINK-5501,PAYLOAD,2024-05-31 14:32:56,14.98333377,0.0002712,70.0009,16.0222,260.8128,99.2724,5.4262e-05,5.55e-06,0.0,0 STARLINK-5501,1 55648U 23021W   24152.60620695  .00000555  00000-0  54262-4 0  9992,2 55648  70.0009  16.0222 0002712 260.8128  99.2724 14.98333377 71861,6950.182,96.107,573.932,570.163,0.0
55648.0,STARLINK-5501,PAYLOAD,2024-05-31 20:57:28,14.98331601,0.0002851,70.0006,15.349,268.3232,91.7601,1.9337e-05,1.38e-06,0.0,0 STARLINK-5501,1 55648U 23021W   24152.87324857  .00000138  00000-0  19337-4 0  9993,2 55648  70.0006  15.3490 0002851 268.3232  91.7601 14.98331601 71601,6950.188,96.107,574.034,570.071,0.0
55648.0,STARLINK-5501,PAYLOAD,2024-05-31 22:33:36,14.98332153,0.0002839,70.0006,15.1806,268.5027,91.5807,2.5426e-05,2.1e-06,0.0,0 STARLINK-5501,1 55648U 23021W   24152.94000798  .00000210  00000-0  25426-4 0  9993,2 55648  70.0006  15.1806 0002839 268.5027  91.5807 14.98332153 71913,6950.186,96.107,574.024,570.078,0.0
55648.0,STARLINK-5501,PAYLOAD,2024-06-01 08:10:25,14.98320725,0.0002723,70.0005,14.1708,264.0292,96.0557,0.00011072,1.228e-05,0.0,0 STARLINK-5501,1 55648U 23021W   24153.34057370  .00001228  00000-0  11072-3 0  9997,2 55648  70.0005  14.1708 0002723 264.0292  96.0557 14.98320725 71676,6950.222,96.108,573.979,570.194,0.0
55648.0,STARLINK-5501,PAYLOAD,2024-06-02 08:12:26,14.98329964,0.0002829,70.0005,11.6438,268.9091,91.1744,1.8002e-05,1.22e-06,0.0,0 STARLINK-5501,1 55648U 23021W   24154.34197036  .00000122  00000-0  18002-4 0  9995,2 55648  70.0005  11.6438 0002829 268.9091  91.1744 14.98329964 71820,6950.193,96.107,574.024,570.092,0.0
55648.0,STARLINK-5501,PAYLOAD,2024-06-02 14:36:58,14.98323784,0.0002944,70.0004,10.9708,265.8949,94.1874,0.00015398,1.744e-05,0.0,0 STARLINK-5501,1 55648U 23021W   24154.60901065  .00001744  00000-0  15398-3 0  9994,2 55648  70.0004  10.9708 0002944 265.8949  94.1874 14.98323784 72166,6950.212,96.107,574.123,570.031,0.0
55648.0,STARLINK-5501,PAYLOAD,2024-06-02 21:01:30,14.98332045,0.0002917,70.0004,10.2978,267.2124,92.8701,5.62e-05,5.78e-06,0.0,0 STARLINK-5501,1 55648U 23021W   24154.87604804  .00000578  00000-0  56200-4 0  9996,2 55648  70.0004  10.2978 0002917 267.2124  92.8701 14.98332045 72208,6950.187,96.107,574.079,570.024,0.0
55648.0,STARLINK-5501,PAYLOAD,2024-06-03 08:14:27,14.9833121,0.0002964,70.0005,9.1195,267.4172,92.6648,8.1424e-05,8.79e-06,0.0,0 STARLINK-5501,1 55648U 23021W   24155.34336820  .00000879  00000-0  81424-4 0  9999,2 55648  70.0005   9.1195 0002964 267.4172  92.6648 14.98331210 71978,6950.189,96.107,574.114,569.994,0.0
55648.0,STARLINK-5501,PAYLOAD,2024-06-03 21:03:31,14.9833523,0.0003042,70.0002,7.7732,268.0368,92.0442,0.00011708,1.304e-05,0.0,0 STARLINK-5501,1 55648U 23021W   24155.87744442  .00001304  00000-0  11708-3 0  9991,2 55648  70.0002   7.7732 0003042 268.0368  92.0442 14.98335230 72353,6950.177,96.107,574.156,569.927,0.0
55648.0,STARLINK-5501,PAYLOAD,2024-06-04 00:15:47,14.98335646,0.0003038,70.0002,7.4365,268.1341,91.947,0.00011829,1.319e-05,0.0,0 STARLINK-5501,1 55648U 23021W   24156.01096383  .00001319  00000-0  11829-3 0  9992,2 55648  70.0002   7.4365 0003038 268.1341  91.9470 14.98335646 72371,6950.175,96.107,574.152,569.929,0.0
55648.0,STARLINK-5501,PAYLOAD,2024-06-04 22:41:40,14.98335307,0.0003016,70.0004,5.0797,268.7984,91.2829,5.0759e-05,5.13e-06,0.0,0 STARLINK-5501,1 55648U 23021W   24156.94560355  .00000513  00000-0  50759-4 0  9990,2 55648  70.0004   5.0797 0003016 268.7984  91.2829 14.98335307 72512,6950.176,96.107,574.138,569.945,0.0
55648.0,STARLINK-5501,PAYLOAD,2024-06-05 00:17:48,14.9833659,0.0003015,70.0011,4.9114,269.1157,90.9657,6.3916e-05,6.7e-06,0.0,0 STARLINK-5501,1 55648U 23021W   24157.01236220  .00000670  00000-0  63916-4 0  9993,2 55648  70.0011   4.9114 0003015 269.1157  90.9657 14.98336590 72225,6950.173,96.107,574.133,569.942,0.0
55648.0,STARLINK-5501,PAYLOAD,2024-06-05 06:42:20,14.98331756,0.0003019,70.0012,4.2382,269.4082,90.6731,1.0245e-05,2.9e-07,0.0,0 STARLINK-5501,1 55648U 23021W   24157.27940564  .00000029  00000-0  10245-4 0  9999,2 55648  70.0012   4.2382 0003019 269.4082  90.6731 14.98331756 72566,6950.187,96.107,574.151,569.954,0.0
55648.0,STARLINK-5501,PAYLOAD,2024-06-06 06:44:22,14.98327209,0.0002937,70.0012,1.713,271.5684,88.5139,-3.8088e-05,-5.47e-06,0.0,0 STARLINK-5501,1 55648U 23021W   24158.28081042 -.00000547  00000-0 -38088-4 0  9990,2 55648  70.0012   1.7130 0002937 271.5684  88.5139 14.98327209 72419,6950.202,96.107,574.108,570.025,0.0
